CCSDS_OMM_VERS = 2.0
CREATION_DATE  = 
ORIGINATOR     = 

OBJECT_NAME    = SL-4 R/B
OBJECT_ID      = 2014-021B
CENTER_NAME    = EARTH
REF_FRAME      = TEME
TIME_SYSTEM    = UTC
MEAN_ELEMENT_THEORY = SGP/SGP4

EPOCH          = 2026-01-02T05:28:02.080704
MEAN_MOTION    = 15.37212367
ECCENTRICITY   = .01001936
INCLINATION    = 51.6092
RA_OF_ASC_NODE = 300.9888
ARG_OF_PERICENTER = 220.3268
MEAN_ANOMALY   = 139.0255

EPHEMERIS_TYPE = 0
CLASSIFICATION_TYPE = U
NORAD_CAT_ID   = 39679
ELEMENT_SET_NO = 999
REV_AT_EPOCH   = 64604
BSTAR          = .43609509E-3
MEAN_MOTION_DOT = .18754E-3
MEAN_MOTION_DDOT = 0

CCSDS_OMM_VERS = 2.0
CREATION_DATE  = 
ORIGINATOR     = 

OBJECT_NAME    = ALOS-2
OBJECT_ID      = 2014-029A
CENTER_NAME    = EARTH
REF_FRAME      = TEME
TIME_SYSTEM    = UTC
MEAN_ELEMENT_THEORY = SGP/SGP4

EPOCH          = 2026-01-02T07:16:56.739936
MEAN_MOTION    = 14.79462256
ECCENTRICITY   = .00013651
INCLINATION    = 97.9221
RA_OF_ASC_NODE = 101.8567
ARG_OF_PERICENTER = 101.5383
MEAN_ANOMALY   = 258.5982

EPHEMERIS_TYPE = 0
CLASSIFICATION_TYPE = U
NORAD_CAT_ID   = 39766
ELEMENT_SET_NO = 999
REV_AT_EPOCH   = 62705
BSTAR          = .80738919E-3
MEAN_MOTION_DOT = .5982E-4
MEAN_MOTION_DDOT = 0

CCSDS_OMM_VERS = 2.0
CREATION_DATE  = 
ORIGINATOR     = 

OBJECT_NAME    = YAOGAN-29
OBJECT_ID      = 2015-069A
CENTER_NAME    = EARTH
REF_FRAME      = TEME
TIME_SYSTEM    = UTC
MEAN_ELEMENT_THEORY = SGP/SGP4

EPOCH          = 2026-01-02T07:58:52.112640
MEAN_MOTION    = 14.82908939
ECCENTRICITY   = .00014483
INCLINATION    = 98.0207
RA_OF_ASC_NODE = 30.5694
ARG_OF_PERICENTER = 148.5297
MEAN_ANOMALY   = 211.6003

EPHEMERIS_TYPE = 0
CLASSIFICATION_TYPE = U
NORAD_CAT_ID   = 41038
ELEMENT_SET_NO = 999
REV_AT_EPOCH   = 54604
BSTAR          = .88423737E-4
MEAN_MOTION_DOT = .663E-5
MEAN_MOTION_DDOT = 0

CCSDS_OMM_VERS = 2.0
CREATION_DATE  = 
ORIGINATOR     = 

OBJECT_NAME    = ASTRO-H (HITOMI)
OBJECT_ID      = 2016-012A
CENTER_NAME    = EARTH
REF_FRAME      = TEME
TIME_SYSTEM    = UTC
MEAN_ELEMENT_THEORY = SGP/SGP4

EPOCH          = 2026-01-02T06:08:42.437472
MEAN_MOTION    = 15.09512827
ECCENTRICITY   = .00095802
INCLINATION    = 31.0005
RA_OF_ASC_NODE = 65.0927
ARG_OF_PERICENTER = 24.8895
MEAN_ANOMALY   = 335.2204

EPHEMERIS_TYPE = 0
CLASSIFICATION_TYPE = U
NORAD_CAT_ID   = 41337
ELEMENT_SET_NO = 999
REV_AT_EPOCH   = 54218
BSTAR          = .34153083E-3
MEAN_MOTION_DOT = .571E-4
MEAN_MOTION_DDOT = 0

CCSDS_OMM_VERS = 2.0
CREATION_DATE  = 
ORIGINATOR     = 

OBJECT_NAME    = HXMT (HUIYAN)
OBJECT_ID      = 2017-034A
CENTER_NAME    = EARTH
REF_FRAME      = TEME
TIME_SYSTEM    = UTC
MEAN_ELEMENT_THEORY = SGP/SGP4

EPOCH          = 2026-01-02T06:38:17.405376
MEAN_MOTION    = 15.16531099
ECCENTRICITY   = .00322037
INCLINATION    = 43.0157
RA_OF_ASC_NODE = 25.6451
ARG_OF_PERICENTER = 177.3156
MEAN_ANOMALY   = 182.7870

EPHEMERIS_TYPE = 0
CLASSIFICATION_TYPE = U
NORAD_CAT_ID   = 42758
ELEMENT_SET_NO = 999
REV_AT_EPOCH   = 47245
BSTAR          = .52291994E-3
MEAN_MOTION_DOT = .10293E-3
MEAN_MOTION_DDOT = 0

CCSDS_OMM_VERS = 2.0
CREATION_DATE  = 
ORIGINATOR     = 

OBJECT_NAME    = CZ-2C R/B
OBJECT_ID      = 2018-054D
CENTER_NAME    = EARTH
REF_FRAME      = TEME
TIME_SYSTEM    = UTC
MEAN_ELEMENT_THEORY = SGP/SGP4

EPOCH          = 2026-01-02T04:33:38.571264
MEAN_MOTION    = 15.79103424
ECCENTRICITY   = .0012596
INCLINATION    = 35.1338
RA_OF_ASC_NODE = 41.7499
ARG_OF_PERICENTER = 347.3005
MEAN_ANOMALY   = 12.7411

EPHEMERIS_TYPE = 0
CLASSIFICATION_TYPE = U
NORAD_CAT_ID   = 43521
ELEMENT_SET_NO = 999
REV_AT_EPOCH   = 41828
BSTAR          = .87296631E-3
MEAN_MOTION_DOT = .165818E-2
MEAN_MOTION_DDOT = 0

CCSDS_OMM_VERS = 2.0
CREATION_DATE  = 
ORIGINATOR     = 

OBJECT_NAME    = SAOCOM 1A
OBJECT_ID      = 2018-076A
CENTER_NAME    = EARTH
REF_FRAME      = TEME
TIME_SYSTEM    = UTC
MEAN_ELEMENT_THEORY = SGP/SGP4

EPOCH          = 2026-01-02T07:55:25.207968
MEAN_MOTION    = 14.82156716
ECCENTRICITY   = .00013492
INCLINATION    = 97.8843
RA_OF_ASC_NODE = 191.4519
ARG_OF_PERICENTER = 84.3719
MEAN_ANOMALY   = 275.7648

EPHEMERIS_TYPE = 0
CLASSIFICATION_TYPE = U
NORAD_CAT_ID   = 43641
ELEMENT_SET_NO = 999
REV_AT_EPOCH   = 39153
BSTAR          = -.46494527E-4
MEAN_MOTION_DOT = -.422E-5
MEAN_MOTION_DDOT = 0

CCSDS_OMM_VERS = 2.0
CREATION_DATE  = 
ORIGINATOR     = 

OBJECT_NAME    = H-2A R/B
OBJECT_ID      = 2018-084L
CENTER_NAME    = EARTH
REF_FRAME      = TEME
TIME_SYSTEM    = UTC
MEAN_ELEMENT_THEORY = SGP/SGP4

EPOCH          = 2026-01-02T02:59:20.972256
MEAN_MOTION    = 15.38257094
ECCENTRICITY   = .00260847
INCLINATION    = 98.8762
RA_OF_ASC_NODE = 205.4420
ARG_OF_PERICENTER = 254.7629
MEAN_ANOMALY   = 105.0727

EPHEMERIS_TYPE = 0
CLASSIFICATION_TYPE = U
NORAD_CAT_ID   = 43682
ELEMENT_SET_NO = 999
REV_AT_EPOCH   = 39553
BSTAR          = .78529499E-3
MEAN_MOTION_DOT = .2992E-3
MEAN_MOTION_DDOT = 0

CCSDS_OMM_VERS = 2.0
CREATION_DATE  = 
ORIGINATOR     = 

OBJECT_NAME    = SAOCOM 1B
OBJECT_ID      = 2020-059A
CENTER_NAME    = EARTH
REF_FRAME      = TEME
TIME_SYSTEM    = UTC
MEAN_ELEMENT_THEORY = SGP/SGP4

EPOCH          = 2026-01-02T07:03:10.673856
MEAN_MOTION    = 14.82166419
ECCENTRICITY   = .00014788
INCLINATION    = 97.8841
RA_OF_ASC_NODE = 190.5159
ARG_OF_PERICENTER = 84.4359
MEAN_ANOMALY   = 275.7023

EPHEMERIS_TYPE = 0
CLASSIFICATION_TYPE = U
NORAD_CAT_ID   = 46265
ELEMENT_SET_NO = 999
REV_AT_EPOCH   = 28891
BSTAR          = .14832295E-3
MEAN_MOTION_DOT = .1129E-4
MEAN_MOTION_DDOT = 0

CCSDS_OMM_VERS = 2.0
CREATION_DATE  = 
ORIGINATOR     = 

OBJECT_NAME    = CSS (TIANHE)
OBJECT_ID      = 2021-035A
CENTER_NAME    = EARTH
REF_FRAME      = TEME
TIME_SYSTEM    = UTC
MEAN_ELEMENT_THEORY = SGP/SGP4

EPOCH          = 2026-01-02T03:24:33.153696
MEAN_MOTION    = 15.60055172
ECCENTRICITY   = .00101915
INCLINATION    = 41.4662
RA_OF_ASC_NODE = 252.7694
ARG_OF_PERICENTER = 202.3911
MEAN_ANOMALY   = 157.6484

EPHEMERIS_TYPE = 0
CLASSIFICATION_TYPE = U
NORAD_CAT_ID   = 48274
ELEMENT_SET_NO = 999
REV_AT_EPOCH   = 26721
BSTAR          = .35128331E-3
MEAN_MOTION_DOT = .29116E-3
MEAN_MOTION_DDOT = 0

CCSDS_OMM_VERS = 2.0
CREATION_DATE  = 
ORIGINATOR     = 

OBJECT_NAME    = CZ-2C R/B
OBJECT_ID      = 2022-058K
CENTER_NAME    = EARTH
REF_FRAME      = TEME
TIME_SYSTEM    = UTC
MEAN_ELEMENT_THEORY = SGP/SGP4

EPOCH          = 2026-01-02T04:35:51.657504
MEAN_MOTION    = 15.49737381
ECCENTRICITY   = .00439
INCLINATION    = 50.1924
RA_OF_ASC_NODE = 299.1650
ARG_OF_PERICENTER = 282.3337
MEAN_ANOMALY   = 77.2719

EPHEMERIS_TYPE = 0
CLASSIFICATION_TYPE = U
NORAD_CAT_ID   = 52794
ELEMENT_SET_NO = 999
REV_AT_EPOCH   = 19980
BSTAR          = .69708288E-3
MEAN_MOTION_DOT = .40777E-3
MEAN_MOTION_DDOT = 0

