SL-4 R/B                
1 39679U 14021B   26002.22780186  .00018754  00000+0  43610-3 0  9997
2 39679  51.6092 300.9888 0100193 220.3268 139.0255 15.37212367646044
ALOS-2                  
1 39766U 14029A   26002.30343449  .00005982  00000+0  80739-3 0  9990
2 39766  97.9221 101.8567 0001365 101.5383 258.5982 14.79462256627052
YAOGAN-29               
1 41038U 15069A   26002.33254760  .00000663  00000+0  88424-4 0  9991
2 41038  98.0207  30.5694 0001448 148.5297 211.6003 14.82908939546049
ASTRO-H (HITOMI)        
1 41337U 16012A   26002.25604673  .00005710  00000+0  34153-3 0  9992
2 41337  31.0005  65.0927 0009580  24.8895 335.2204 15.09512827542185
HXMT (HUIYAN)           
1 42758U 17034A   26002.27659034  .00010293  00000+0  52292-3 0  9994
2 42758  43.0157  25.6451 0032203 177.3156 182.7870 15.16531099472456
CZ-2C R/B               
1 43521U 18054D   26002.19002976  .00165818  00000+0  87297-3 0  9991
2 43521  35.1338  41.7499 0012596 347.3005  12.7411 15.79103424418284
SAOCOM 1A               
1 43641U 18076A   26002.33015287 -.00000422  00000+0 -46495-4 0  9990
2 43641  97.8843 191.4519 0001349  84.3719 275.7648 14.82156716391539
H-2A R/B                
1 43682U 18084L   26002.12454829  .00029920  00000+0  78529-3 0  9994
2 43682  98.8762 205.4420 0026084 254.7629 105.0727 15.38257094395538
SAOCOM 1B               
1 46265U 20059A   26002.29387354  .00001129  00000+0  14832-3 0  9993
2 46265  97.8841 190.5159 0001478  84.4359 275.7023 14.82166419288911
CSS (TIANHE)            
1 48274U 21035A   26002.14205039  .00029116  00000+0  35128-3 0  9990
2 48274  41.4662 252.7694 0010191 202.3911 157.6484 15.60055172267210
CZ-2C R/B               
1 52794U 22058K   26002.19157011  .00040777  00000+0  69708-3 0  9996
2 52794  50.1924 299.1650 0043900 282.3337  77.2719 15.49737381199804
